0 VANGUARD 2
1    11U 59001A   23003.55578838  .00001221  00000-0  65779-3 0  9997
2    11  32.8631 162.0729 1463903 104.1194 272.5998 11.86302677727177
0 VANGUARD 3
1    20U 59007A   23003.70844294  .00001831  00000-0  75041-3 0  9992
2    20  33.3420 106.5519 1661063 163.6049 202.5622 11.56481986338303
0 EXPLORER 7
1    22U 59009A   23003.59270808  .00005404  00000-0  39448-3 0  9998
2    22  50.2832  51.3004 0131233 218.1164 141.0446 14.98483361364588
0 TIROS 1
1    29U 60002B   23003.73328004  .00000492  00000-0  10286-3 0  9999
2    29  48.3784 237.2398 0024304 253.5798 106.2443 14.74890706355934
0 TRANSIT 2A
1    45U 60007A   23003.22222766  .00000240  00000-0  86378-4 0  9991
2    45  66.6947  90.3749 0255122 357.1173   2.8439 14.33985825255999
0 SOLRAD 1 (GREB)
1    46U 60007B   23003.56420375  .00000742  00000-0  16848-3 0  9996
2    46  66.6907  52.4390 0205591 159.5094 201.4417 14.50014816273904
0 COURIER 1B
1    58U 60013A   23003.48015141  .00000104  00000-0  23598-4 0  9991
2    58  28.3294  56.3116 0164839 209.0998 150.0273 13.46341898 64570
0 EXPLORER 11
1   107U 61013A   23003.20597553  .00004924  00000-0  63950-3 0  9998
2   107  28.7913 325.6641 0538718 331.4822  25.7248 14.10880463 97078
0 TRANSIT 4A
1   116U 61015A   23003.54652886  .00000018  00000-0  73116-4 0  9994
2   116  66.8105  94.3708 0069177  75.7011 285.1737 13.91867499121743
0 SOLRAD 3/INJUN 1
1   117U 61015B   23003.53435567  .00000009  00000-0  67480-4 0  9996
2   117  66.8103 197.7995 0071190 100.4091 260.5020 13.89915618119282
0 TIROS 3
1   162U 61017A   23003.20008020  .00000143  00000-0  87646-4 0  9997
2   162  47.9010 339.5715 0044303  49.0926 311.3791 14.44234375234707
0 TRANSIT 4B
1   202U 61031A   23003.52466501  .00000057  00000-0  42959-4 0  9997
2   202  32.4355 195.7665 0101211 359.6953   0.3596 13.63585816 48880
0 TRAAC
1   205U 61031B   23003.21080836  .00000045  00000-0  28847-4 0  9996
2   205  32.4425 340.3224 0102019 135.8133 225.0689 13.62443004 47486
0 TIROS 4
1   226U 62002A   23003.14818488  .00000067  00000-0  65236-4 0  9999
2   226  48.2970 313.6652 0077373  99.7673 261.1974 14.45868357206768
0 TIROS 5
1   309U 62025A   23003.68510957  .00000257  00000-0  80149-4 0  9996
2   309  58.0904 161.9547 0189505 333.6349  25.5128 14.57355097197862
0 FTV 3502
1   369U 62039A   23003.41565291  .00001732  00000-0  19714-3 0  9997
2   369  98.5157 337.4334 0089196 246.9443 112.2346 14.84912906228462
0 TIROS 6
1   397U 62047A   23003.68096756  .00001105  00000-0  13834-3 0  9992
2   397  58.3061  67.0652 0006723 168.4004 191.7197 14.89348319245445
0 ALOUETTE 1 (S-27)
1   424U 62049A   23003.57755987  .00000088  00000-0  90963-4 0  9999
2   424  80.4652  63.4664 0022148 247.8312 112.0482 13.69239699  8777
0 ANNA 1B
1   446U 62060A   23003.39726715 -.00000100  00000-0  49528-4 0  9990
2   446  50.1402 232.1338 0070014 233.2424 298.3234 13.35293121935662
0 EXPLORER 16
1   506U 62070A   23003.17482067 -.00000018  00000-0  84729-4 0  9993
2   506  51.9997 164.1195 0278085  96.1314 267.1363 13.85266510 34398
0 HITCH HIKER 1
1 00614U 63025B   23002.87884166  .00030418 -86004-6  45301-3 0  9999
2 00614  81.9722 273.0777 0433933 145.1969 217.8474 14.90255101733852
0 TRANSIT 5B-1
1   670U 63038B   23003.65281672  .00000092  00000-0  14193-3 0  9990
2   670  90.0111 334.4960 0042873  44.7092 315.7498 13.44408463905408
0 RADIATION SAT (5E 1)
1 00671U 63038C   23002.65645195  .00000121  00000-0  18914-3 0  9992
2 00671  90.0119 334.4900 0040581   7.5219 352.6529 13.44930433905450
0 TRANSIT 5B-2
1 00704U 63049B   23002.64750036  .00000053  00000-0  71593-4 0  9998
2 00704  89.9091  81.4725 0033443 328.2259 146.9690 13.46910221901491
0 TRANSIT 5E 3
1 00705U 63049C   23002.68767633  .00000051  00000-0  67583-4 0  9996
2 00705  89.9094  81.4161 0031952 284.9867 188.1625 13.47411614902226
0 TIROS 8
1   716U 63054A   23003.29910922  .00000444  00000-0  10392-3 0  9994
2   716  58.4961  16.4867 0029923  78.0219 282.4171 14.69984739151195
0 GGSE 1 (GGRS)
1   728U 64001B   23002.85176878  .00000058  00000-0  79424-4 0  9998
2   728  69.9081  38.9647 0013436 185.6217 174.4741 13.97279784  3914
0 SECOR 1B
1   729U 64001C   23003.01780251  .00000003  00000-0  42392-4 0  9998
2   729  69.9013 117.6985 0016927 256.7634 103.1583 13.94965413  1369
0 SOLRAD 7A
1   730U 64001D   23003.72428896  .00000032  00000-0  62492-4 0  9997
2   730  69.9070 103.1235 0015669 221.5533 290.2787 13.95707555885324
0 GREB
1   731U 64001E   23002.97690488  .00000029  00000-0  60654-4 0  9996
2   731  69.9068  96.0315 0015601 218.8089 141.1896 13.95936261  2023
0 OPS 3367 A
1 00734U 64002B   23002.89242840  .00000092  00000-0  55195-4 0  9990
2 00734  99.0586 236.7223 0013654 243.3318 116.6464 14.28998104 68582
0 OPS 3367 B
1   735U 64002C   23003.35622483  .00000107  00000-0  62288-4 0  9996
2   735  99.0838 231.5695 0016654 358.5755   1.5374 14.27943732 66807
0 OPS 4412 (TRANSIT 9)
1   801U 64026A   23002.57066416  .00000503  00000-0  25173-3 0  9998
2   801  90.5083 120.8021 0050296 135.8381 224.6839 14.15046317  8016
0 OPS 4467 A
1   812U 64031A   23003.22577960  .00000116  00000-0  74257-4 0  9998
2   812  99.8340 357.9782 0005920  27.8491 332.3000 14.23991916 37257
0 OPS 4467 B
1 00813U 64031B   23002.93270468  .00000078  00000-0  58357-4 0  9999
2 00813  99.8428 355.6538 0006080 103.1882 256.9971 14.23167734 35494
0 EXPLORER 20
1   870U 64051A   23003.82759681  .00000138  00000-0  10001-3 0  9992
2   870  79.8965 209.7810 0097590 355.1337   4.8859 13.91266186958611
0 COSMOS 44
1   876U 64053A   23003.21181477  .00000146  00000-0  47952-4 0  9990
2   876  65.0613  86.9222 0128687  30.8015 330.0555 14.64013780104484
0 OPS 5798 (TRANSIT 5B-4)
1   897U 64063B   23003.41035109  .00000099  00000-0  13421-3 0  9996
2   897  90.1941  47.6871 0017886 239.7244 131.3929 13.53507749875141
0 EXPLORER 22
1   899U 64064A   23003.15893913  .00000144  00000-0  12033-3 0  9994
2   899  79.6909  66.1506 0120736 205.8238 153.6855 13.82307092931101
0 CALSPHERE 1
1   900U 64063C   23002.86288865  .00000606  00000-0  63368-3 0  9997
2   900  90.1812  44.6443 0028668 139.8924 268.9280 13.74027405898040
0 CALSPHERE 2
1 00902U 64063E   23002.89733888  .00000053  00000-0  66323-4 0  9993
2 00902  90.1952  47.8682 0016501 291.0823 242.9898 13.52731763685731
0 EXPLORER 25 (INJUN-4)
1   932U 64076B   23002.68940591  .00000452  00000-0  16288-3 0  9995
2   932  81.3421 267.2700 1128932 243.7595 104.3271 12.64518201659121
0 OPS 6582 (TRANSIT 5E-5)
1   959U 64083C   23003.44418080  .00000219  00000-0  27067-3 0  9998
2   959  89.9904 187.0577 0043790  65.5004 322.0857 13.61808505879044
0 OPS 6582 (TRANSIT 5B-5)
1 00965U 64083D   23002.81708874  .00000090  00000-0  11341-3 0  9993
2 00965  90.0278 196.0800 0041359   8.9466   1.7966 13.56799327872555
0 TIROS 9
1 00978U 65004A   23002.77199216 -.00000155  00000-0 -17087-3 0  9997
2 00978  96.3923  30.1976 1157803 242.0394 105.8842 12.10930468558924
0 SECOR 3
1  1208U 65016E   23003.71784213  .00000050  00000-0  74708-4 0  9995
2  1208  70.0801 347.9641 0022852 298.7783 233.6415 13.95685527943737
0 GGSE 2
1  1244U 65016B   23003.38728992  .00000062  00000-0  84025-4 0  9996
2  1244  70.0797 351.2504 0023523 302.1498  57.7326 13.95746231942562
0 OPS 4988 (GREB 6)
1  1271U 65016A   23003.16594205  .00000050  00000-0  74075-4 0  9991
2  1271  70.0804 325.6677 0023746 286.5686  85.1621 13.96231561943322
0 PORCUPINE 1
1 01272U 65016H   23002.85209818  .00000000  00000-0  39155-4 0  9995
2 01272  70.0803  48.7050 0023619 330.3889  29.5878 13.94278145940579
0 SOLRAD 7B
1  1291U 65016D   23002.83736444  .00000014  00000-0  49609-4 0  9994
2  1291  70.0796  37.2820 0022497 329.6223  30.3578 13.94665010941305
0 GGSE 3
1  1292U 65016C   23002.62157293  .00000172  00000-0  15030-3 0  9996
2  1292  70.0769 142.0611 0020199 190.6468 169.4216 14.00782734948348
0 OSCAR 3
1  1293U 65016F   23003.07852050  .00000337  00000-0  23491-3 0  9993
2  1293  70.0739 258.2323 0015475  29.5925 330.6059 14.06765359955205
0 OPS 4682 (SNAPSHOT)
1  1314U 65027A   23003.67834583 -.00000011  00000-0 -68063-4 0  9992
2  1314  90.2574 338.2745 0029748 340.4201 193.6317 12.91769832468684
0 SECOR 4 (EGRS 4)
1 01315U 65027B   23002.74758439  .00000092  00000-0  31169-3 0  9998
2 01315  90.2487 347.4381 0029455 253.3202 282.6657 12.92622897723954
0 EXPLORER 27
1  1328U 65032A   23003.18136404 -.00000039  00000-0  60488-4 0  9998
2  1328  41.1875  12.2482 0256065 227.7189 130.1595 13.38703705819752
0 OPS 8480 (TRANSIT 5B-6)
1 01420U 65048A   23002.55820575  .00000133  00000-0  18525-3 0  9995
2 01420  89.9087 300.2671 0075138 126.1700  47.6731 13.51484866833019
0 TIROS 10
1  1430U 65051A   23003.56219709  .00000214  00000-0  79657-4 0  9997
2  1430  98.3905 122.0547 0055165 266.2794  93.2085 14.40463173 14783
0 SECOR 5 (EGRS 5)
1  1506U 65063A   23003.21197201  .00000009  00000-0  27829-3 0  9993
2  1506  69.2363 354.7816 0781899  84.5730 295.6147 11.78652776470034
0 DODECAPOLE 2
1  1510U 65065C   23003.28836130  .00002679  00000-0  18896-2 0  9996
2  1510  90.0377  18.0123 0038435 214.4136 145.4552 13.97404819856678
0 TEMPSAT 1
1  1512U 65065E   23003.38603578  .00000055  00000-0  91388-4 0  9992
2  1512  89.9219 217.1096 0069661 187.6927 348.9515 13.33465153792011
0 OPS 8464 (TRANSIT 5B-7)
1 01514U 65065F   23002.86764863  .00000085  00000-0  14714-3 0  9991
2 01514  89.9110 233.5006 0071640 112.9513 259.2964 13.35048454792956
0 NAVSPASUR ROD 1
1  1515U 65065G   23003.56844265  .00000452  00000-0  69797-3 0  9994
2  1515  89.9482 215.8931 0056047 358.0749  30.3372 13.49233014810671
0 CALSPHERE 4(A)
1  1520U 65065H   23003.80317731  .00000093  00000-0  16199-3 0  9999
2  1520  89.9826 129.9196 0070228  59.6473 105.8097 13.35924943794814
0 COSMOS 80
1  1570U 65070A   23003.55973163 -.00000086  00000-0  65533-4 0  9999
2  1570  56.0564 290.9188 0103552  53.6603 116.8360 12.52772166623811
